{
  "type": "FeatureCollection",
  "features": [
    {
      "type": "Feature",
      "properties": {
        "norad_id": 37966,
        "name": "COSMOS 2251 DEB",
        "group": "cosmos-2251-debris",
        "lat": 73.96597849503563,
        "lon": -50.83795643156059,
        "alt_km": 511.8661059376309,
        "timestamp": "2025-12-17T19:34:08.435590+00:00",
        "meta_object_name": "COSMOS 2251 DEB",
        "meta_object_id": "1993-036BPR",
        "meta_epoch": "2025-12-13T08:51:38.453184",
        "meta_mean_motion": 15.12754556,
        "meta_eccentricity": 0.00088035,
        "meta_inclination": 73.9781,
        "meta_ra_of_asc_node": 229.2381,
        "meta_arg_of_pericenter": 105.8293,
        "meta_mean_anomaly": 254.3871,
        "meta_ephemeris_type": 0,
        "meta_classification_type": "U",
        "meta_norad_cat_id": 37966,
        "meta_element_set_no": 999,
        "meta_rev_at_epoch": 85352,
        "meta_bstar": 0.0051051315,
        "meta_mean_motion_dot": 0.00090719,
        "meta_mean_motion_ddot": 0,
        "tle_line1": "1 37966U 93036BPR 25347.36919506  .00090719  00000+0  51051-2 0  9991",
        "tle_line2": "2 37966  73.9781 229.2381 0008803 105.8293 254.3871 15.12754556853526"
      },
      "geometry": {
        "type": "Point",
        "coordinates": [
          -50.83795643156059,
          73.96597849503563
        ]
      }
    },
    {
      "type": "Feature",
      "properties": {
        "norad_id": 37967,
        "name": "COSMOS 2251 DEB",
        "group": "cosmos-2251-debris",
        "lat": -49.120732611745744,
        "lon": -32.67977022869434,
        "alt_km": 673.2356689043327,
        "timestamp": "2025-12-17T19:34:08.435600+00:00",
        "meta_object_name": "COSMOS 2251 DEB",
        "meta_object_id": "1993-036BPS",
        "meta_epoch": "2025-12-16T15:49:01.333344",
        "meta_mean_motion": 14.40558271,
        "meta_eccentricity": 0.01508719,
        "meta_inclination": 74.0142,
        "meta_ra_of_asc_node": 130.1216,
        "meta_arg_of_pericenter": 268.0576,
        "meta_mean_anomaly": 90.3296,
        "meta_ephemeris_type": 0,
        "meta_classification_type": "U",
        "meta_norad_cat_id": 37967,
        "meta_element_set_no": 999,
        "meta_rev_at_epoch": 64792,
        "meta_bstar": 0.0012511846,
        "meta_mean_motion_dot": 4.533e-05,
        "meta_mean_motion_ddot": 0,
        "tle_line1": "1 37967U 93036BPS 25350.65904321  .00004533  00000+0  12512-2 0  9995",
        "tle_line2": "2 37967  74.0142 130.1216 0150871 268.0576  90.3296 14.40558271647926"
      },
      "geometry": {
        "type": "Point",
        "coordinates": [
          -32.67977022869434,
          -49.120732611745744
        ]
      }
    },
    {
      "type": "Feature",
      "properties": {
        "norad_id": 37968,
        "name": "COSMOS 2251 DEB",
        "group": "cosmos-2251-debris",
        "lat": 40.81450212366997,
        "lon": -84.84150448762945,
        "alt_km": 511.429272046008,
        "timestamp": "2025-12-17T19:34:08.435610+00:00",
        "meta_object_name": "COSMOS 2251 DEB",
        "meta_object_id": "1993-036BPT",
        "meta_epoch": "2025-12-13T01:47:19.855104",
        "meta_mean_motion": 15.00631757,
        "meta_eccentricity": 0.00804168,
        "meta_inclination": 74.0008,
        "meta_ra_of_asc_node": 270.4748,
        "meta_arg_of_pericenter": 26.0563,
        "meta_mean_anomaly": 334.4636,
        "meta_ephemeris_type": 0,
        "meta_classification_type": "U",
        "meta_norad_cat_id": 37968,
        "meta_element_set_no": 999,
        "meta_rev_at_epoch": 60224,
        "meta_bstar": 0.0014144446,
        "meta_mean_motion_dot": 0.0001917,
        "meta_mean_motion_ddot": 0,
        "tle_line1": "1 37968U 93036BPT 25347.07453536  .00019170  00000+0  14144-2 0  9991",
        "tle_line2": "2 37968  74.0008 270.4748 0080416  26.0563 334.4636 15.00631757602245"
      },
      "geometry": {
        "type": "Point",
        "coordinates": [
          -84.84150448762945,
          40.81450212366997
        ]
      }
    },
    {
      "type": "Feature",
      "properties": {
        "norad_id": 37971,
        "name": "COSMOS 2251 DEB",
        "group": "cosmos-2251-debris",
        "lat": 73.9824826370622,
        "lon": 121.40534666730197,
        "alt_km": 714.2215230429074,
        "timestamp": "2025-12-17T19:34:08.435620+00:00",
        "meta_object_name": "COSMOS 2251 DEB",
        "meta_object_id": "1993-036BPW",
        "meta_epoch": "2025-12-15T20:44:52.764576",
        "meta_mean_motion": 14.48694104,
        "meta_eccentricity": 0.00668395,
        "meta_inclination": 73.9939,
        "meta_ra_of_asc_node": 35.8693,
        "meta_arg_of_pericenter": 174.332,
        "meta_mean_anomaly": 185.8612,
        "meta_ephemeris_type": 0,
        "meta_classification_type": "U",
        "meta_norad_cat_id": 37971,
        "meta_element_set_no": 999,
        "meta_rev_at_epoch": 60723,
        "meta_bstar": 0.0012835139,
        "meta_mean_motion_dot": 4.95e-05,
        "meta_mean_motion_ddot": 0,
        "tle_line1": "1 37971U 93036BPW 25349.86449959  .00004950  00000+0  12835-2 0  9993",
        "tle_line2": "2 37971  73.9939  35.8693 0066839 174.3320 185.8612 14.48694104607235"
      },
      "geometry": {
        "type": "Point",
        "coordinates": [
          121.40534666730197,
          73.9824826370622
        ]
      }
    },
    {
      "type": "Feature",
      "properties": {
        "norad_id": 37975,
        "name": "COSMOS 2251 DEB",
        "group": "cosmos-2251-debris",
        "lat": 55.490749571917455,
        "lon": 109.44975533933655,
        "alt_km": 702.0946824929515,
        "timestamp": "2025-12-17T19:34:08.435631+00:00",
        "meta_object_name": "COSMOS 2251 DEB",
        "meta_object_id": "1993-036BQA",
        "meta_epoch": "2025-12-13T15:48:30.179232",
        "meta_mean_motion": 14.76130148,
        "meta_eccentricity": 0.00956338,
        "meta_inclination": 74.0029,
        "meta_ra_of_asc_node": 322.2658,
        "meta_arg_of_pericenter": 311.4373,
        "meta_mean_anomaly": 47.8613,
        "meta_ephemeris_type": 0,
        "meta_classification_type": "U",
        "meta_norad_cat_id": 37975,
        "meta_element_set_no": 999,
        "meta_rev_at_epoch": 69759,
        "meta_bstar": 0.0039912819,
        "meta_mean_motion_dot": 0.00029805,
        "meta_mean_motion_ddot": 0,
        "tle_line1": "1 37975U 93036BQA 25347.65868263  .00029805  00000+0  39913-2 0  9997",
        "tle_line2": "2 37975  74.0029 322.2658 0095633 311.4373  47.8613 14.76130148697591"
      },
      "geometry": {
        "type": "Point",
        "coordinates": [
          109.44975533933655,
          55.490749571917455
        ]
      }
    },
    {
      "type": "Feature",
      "properties": {
        "norad_id": 37978,
        "name": "COSMOS 2251 DEB",
        "group": "cosmos-2251-debris",
        "lat": -63.23321083716646,
        "lon": 42.76693148363911,
        "alt_km": 286.6582965498201,
        "timestamp": "2025-12-17T19:34:08.435641+00:00",
        "meta_object_name": "COSMOS 2251 DEB",
        "meta_object_id": "1993-036BQD",
        "meta_epoch": "2025-11-19T05:08:53.100672",
        "meta_mean_motion": 15.61137081,
        "meta_eccentricity": 0.00148985,
        "meta_inclination": 74.0238,
        "meta_ra_of_asc_node": 142.2198,
        "meta_arg_of_pericenter": 140.9849,
        "meta_mean_anomaly": 219.2448,
        "meta_ephemeris_type": 0,
        "meta_classification_type": "U",
        "meta_norad_cat_id": 37978,
        "meta_element_set_no": 999,
        "meta_rev_at_epoch": 8032,
        "meta_bstar": 0.0043958825,
        "meta_mean_motion_dot": 0.0039117,
        "meta_mean_motion_ddot": 0,
        "tle_line1": "1 37978U 93036BQD 25323.21450348  .00391170  00000+0  43959-2 0  9999",
        "tle_line2": "2 37978  74.0238 142.2198 0014898 140.9849 219.2448 15.61137081 80328"
      },
      "geometry": {
        "type": "Point",
        "coordinates": [
          42.76693148363911,
          -63.23321083716646
        ]
      }
    },
    {
      "type": "Feature",
      "properties": {
        "norad_id": 37985,
        "name": "COSMOS 2251 DEB",
        "group": "cosmos-2251-debris",
        "lat": 14.865248988242204,
        "lon": 72.06113753106686,
        "alt_km": 786.4531675452718,
        "timestamp": "2025-12-17T19:34:08.435651+00:00",
        "meta_object_name": "COSMOS 2251 DEB",
        "meta_object_id": "1993-036BQL",
        "meta_epoch": "2025-12-16T11:01:39.454752",
        "meta_mean_motion": 14.35484179,
        "meta_eccentricity": 0.00209549,
        "meta_inclination": 74.0253,
        "meta_ra_of_asc_node": 258.9094,
        "meta_arg_of_pericenter": 20.5927,
        "meta_mean_anomaly": 339.6065,
        "meta_ephemeris_type": 0,
        "meta_classification_type": "U",
        "meta_norad_cat_id": 37985,
        "meta_element_set_no": 999,
        "meta_rev_at_epoch": 64970,
        "meta_bstar": 4.4763475e-05,
        "meta_mean_motion_dot": 1.03e-06,
        "meta_mean_motion_ddot": 0,
        "tle_line1": "1 37985U 93036BQL 25350.45948443  .00000103  00000+0  44763-4 0  9990",
        "tle_line2": "2 37985  74.0253 258.9094 0020954  20.5927 339.6065 14.35484179649701"
      },
      "geometry": {
        "type": "Point",
        "coordinates": [
          72.06113753106686,
          14.865248988242204
        ]
      }
    }
  ]
}